OBJECT_NAME,OBJECT_ID,EPOCH,MEAN_MOTION,ECCENTRICITY,INCLINATION,RA_OF_ASC_NODE,ARG_OF_PERICENTER,MEAN_ANOMALY,EPHEMERIS_TYPE,CLASSIFICATION_TYPE,NORAD_CAT_ID,ELEMENT_SET_NO,REV_AT_EPOCH,BSTAR,MEAN_MOTION_DOT,MEAN_MOTION_DDOT
STARLINK-32194,2024-133Q,2026-06-06T12:58:29.518752,15.30217252,.00011146,53.1606,244.3739,108.4417,251.6705,0,U,60315,999,10524,.81262746E-4,.205E-4,0
STARLINK-32192,2024-133R,2026-06-06T12:05:18.293280,15.30212883,.00009726,53.1602,244.1398,82.4072,277.7039,0,U,60316,999,10533,.87787451E-4,.2243E-4,0
STARLINK-32189,2024-133S,2026-06-06T11:21:23.686848,15.30176006,.00010424,53.1604,244.6606,82.6365,277.4754,0,U,60317,999,10532,.2287007E-3,.6415E-4,0
STARLINK-32190,2024-133T,2026-06-06T12:41:46.654944,15.30223109,.00011587,53.1608,244.2975,96.7477,263.3656,0,U,60318,999,10524,.15615337E-3,.4272E-4,0
STARLINK-32182,2024-133U,2026-06-06T12:56:58.660512,15.30215438,.00011835,53.1609,244.3672,109.7991,250.3137,0,U,60319,999,10524,.61548728E-4,.1465E-4,0
STARLINK-32199,2024-133V,2026-06-06T14:20:22.813728,15.30225505,.0001072,53.1606,244.0127,91.2924,268.8199,0,U,60320,999,10525,.14071E-3,.3814E-4,0
STARLINK-32198,2024-133W,2026-06-06T13:00:00.996480,15.30214822,.00010152,53.1592,244.3772,106.7527,253.3586,0,U,60321,999,10533,.6558753E-4,.1585E-4,0
HULIANWAN GAOGUI-02 (HG-02),2024-135A,2026-06-06T19:20:02.524128,1.00271529,.0007749,0.0426,350.4048,17.7441,330.2802,0,U,60327,999,739,0,-.159E-5,0
STARLINK-31745,2024-136A,2026-06-05T21:53:03.362208,15.31701968,.00015006,53.1603,25.7548,44.7703,315.3420,0,U,60329,999,10438,.15642567E-4,.12E-5,0
STARLINK-32153,2024-136B,2026-06-05T21:16:58.736352,15.30190281,.00013164,53.1611,26.3084,99.4390,260.6760,0,U,60330,999,10316,.5303642E-5,-.202E-5,0
STARLINK-32203,2024-136C,2026-06-05T21:32:25.124928,15.34395098,.00009081,53.1615,15.7209,95.3453,264.7653,0,U,60331,999,10331,.27573487E-4,.556E-5,0
STARLINK-32171,2024-136D,2026-06-06T20:00:01.999008,15.31726158,.0001288,53.1603,21.3709,90.1520,5.6437,0,U,60332,999,590,-.23269E-2,-.71941E-3,0
STARLINK-32133,2024-136E,2026-06-06T08:06:13.491360,15.30202735,.00010934,53.1607,24.1431,99.2032,260.9092,0,U,60333,999,10323,-.35376399E-4,-.1407E-4,0
STARLINK-32132,2024-136F,2026-06-06T07:57:06.372864,15.30196466,.00016828,53.1620,24.1018,89.5544,270.5650,0,U,60334,999,10323,.94001436E-4,.2425E-4,0
STARLINK-32168,2024-136G,2026-06-06T07:52:32.945376,15.30201135,.00013054,53.1610,24.0837,98.0345,262.0804,0,U,60335,999,10323,.48245816E-4,.107E-4,0
STARLINK-32079,2024-136H,2026-06-06T07:47:59.970624,15.30187280,.0001083,53.1604,24.0631,84.8286,275.2838,0,U,60336,999,10323,-.10875724E-4,-.681E-5,0
STARLINK-32078,2024-136K,2026-06-06T07:41:55.537152,15.30197481,.00010852,53.1593,24.0407,116.8819,243.2293,0,U,60338,999,10323,.30375728E-4,.541E-5,0
STARLINK-32175,2024-136L,2026-06-05T22:14:33.296064,15.30199577,.00012219,53.1609,25.8434,89.9875,270.1266,0,U,60339,999,10317,.51741256E-4,.1174E-4,0
STARLINK-32176,2024-136M,2026-06-05T22:09:59.837472,15.30197467,.0001371,53.1629,25.8240,100.4473,259.6683,0,U,60340,999,10434,.48702255E-4,.1083E-4,0
STARLINK-32185,2024-136N,2026-06-05T21:59:20.959584,15.30200930,.00018471,53.1609,25.7783,38.2933,321.8198,0,U,60341,999,10317,.42835653E-4,.909E-5,0
STARLINK-32221,2024-136P,2026-06-05T20:29:52.122336,15.30193901,.00014611,53.1606,26.0978,62.0370,298.0779,0,U,60342,999,10316,.21879019E-4,.289E-5,0
STARLINK-32083,2024-136Q,2026-06-05T22:05:25.765440,15.30190321,.00013282,53.1604,25.7639,90.8241,269.2912,0,U,60343,999,10317,.3561484E-5,-.254E-5,0
STARLINK-32077,2024-136R,2026-06-05T21:54:47.272032,15.30199575,.00013113,53.1611,25.7582,75.6749,284.4397,0,U,60344,999,10317,.3341573E-4,.631E-5,0
STARLINK-32075,2024-136S,2026-06-06T08:47:05.358336,15.30194290,.00012863,53.1601,23.6041,103.9485,256.1658,0,U,60345,999,10324,-.12665379E-4,-.734E-5,0
STARLINK-32082,2024-136T,2026-06-06T04:06:25.151616,15.30187233,.0001446,53.1614,24.5253,71.7668,288.3490,0,U,60346,999,10321,-.29453E-4,-.1231E-4,0
STARLINK-32084,2024-136U,2026-06-06T08:30:36.509472,15.31703025,.00014905,53.1609,23.5317,95.3982,264.7189,0,U,60347,999,10324,.23226459E-4,.356E-5,0
STARLINK-32081,2024-136V,2026-06-06T08:10:26.481792,15.31705272,.00010188,53.1618,23.4498,98.6897,261.4220,0,U,60348,999,10324,.56025039E-4,.1374E-4,0
STARLINK-32181,2024-136W,2026-06-05T20:19:15.813120,15.34393599,.00015358,53.1624,24.6364,68.2510,291.8656,0,U,60349,999,10318,.34677558E-4,.795E-5,0
STARLINK-32076,2024-136X,2026-06-06T08:03:42.757920,15.31715744,.00012154,53.1606,23.4190,87.9167,272.1973,0,U,60350,999,10324,.13192446E-3,.3733E-4,0
STARLINK-32097,2024-136Y,2026-06-05T20:16:14.026656,15.34395895,.00009108,53.1594,24.6197,85.8608,274.2499,0,U,60351,999,10318,.12160663E-3,.3734E-4,0
STRIX-4,2024-137A,2026-06-06T20:32:47.896224,15.32206797,.0018317,43.0164,343.7748,239.4869,120.4176,0,U,60352,999,10243,.76417E-3,.24188E-3,0
STARLINK-32285,2024-138A,2026-06-06T14:11:58.261056,15.30212127,.0001216,53.1621,256.3299,64.1169,295.9957,0,U,60355,999,10424,.161E-3,.4414E-4,0
STARLINK-32278,2024-138B,2026-06-06T14:07:34.295232,15.30212932,.0001126,53.1599,257.0100,94.0894,266.0235,0,U,60356,999,10423,.12457E-3,.3333E-4,0
STARLINK-32287,2024-138D,2026-06-06T14:03:00.579168,15.30218086,.000154,53.1607,257.0002,91.9044,268.2133,0,U,60358,999,10423,.14007E-3,.3793E-4,0
STARLINK-32290,2024-138E,2026-06-06T14:06:04.027968,15.30221479,.0001095,53.1586,257.0172,80.6983,279.4141,0,U,60359,999,8526,.36951E-3,.10607E-3,0
STARLINK-32275,2024-138F,2026-06-06T14:01:45.120864,15.31734930,.0000852,53.1600,256.2843,97.3691,262.7408,0,U,60360,999,10424,.15606E-3,.4486E-4,0
STARLINK-32227,2024-138G,2026-06-06T13:56:55.936608,15.30212474,.0001007,53.1603,256.9638,93.6443,266.4673,0,U,60361,999,10424,.11912E-3,.3172E-4,0
STARLINK-32256,2024-138H,2026-06-06T14:04:33.258720,15.30206661,.0002789,53.1605,256.9935,32.4902,327.6270,0,U,60362,999,10422,.2666E-3,.7546E-4,0
STARLINK-32267,2024-138J,2026-06-06T13:49:20.911008,15.30208636,.0001168,53.1602,256.9419,76.0864,284.0267,0,U,60363,999,10423,.81434E-4,.2054E-4,0
STARLINK-32270,2024-138K,2026-06-06T20:00:01.999008,15.31717011,.000145,53.1586,255.6393,80.3530,312.8861,0,U,60364,999,555,.42717E-3,.12921E-3,0
STARLINK-32188,2024-138L,2026-06-06T13:01:53.740704,15.31717134,.00006895,53.1576,256.7333,98.9175,261.1904,0,U,60365,999,10423,.19235739E-3,.5612E-4,0
STARLINK-32230,2024-138M,2026-06-06T13:46:20.296128,15.30196486,.0001065,53.1600,256.9300,105.1223,254.9896,0,U,60366,999,10423,.80632E-5,-.12E-5,0
STARLINK-32243,2024-138N,2026-06-06T13:22:03.326880,15.31731027,.0000947,53.1593,256.8172,42.2501,317.8573,0,U,60367,999,10423,.99203E-5,-.57E-6,0
STARLINK-32271,2024-138P,2026-06-06T13:59:58.881696,15.30210190,.0000953,53.1598,256.9864,89.0943,271.0167,0,U,60368,999,10423,.13908E-3,.3764E-4,0
STARLINK-32220,2024-138R,2026-06-06T13:40:12.787680,15.30231104,.0001179,53.1616,256.8950,78.1531,281.9602,0,U,60370,999,10423,.22846E-3,.6419E-4,0
STARLINK-32263,2024-138S,2026-06-06T14:16:32.253600,15.30188677,.000192,53.1616,256.3480,46.5379,313.5781,0,U,60371,999,10414,.27544E-3,.7804E-4,0
STARLINK-32268,2024-138T,2026-06-06T14:01:32.383776,15.30187167,.0001082,53.1583,256.9940,83.5251,276.5873,0,U,60372,999,10423,.49472E-4,.1106E-4,0
STARLINK-32223,2024-138U,2026-06-06T13:15:20.175840,15.31720148,.0001032,53.1611,256.7896,71.1501,288.9612,0,U,60373,999,10413,.88327E-4,.2378E-4,0
STARLINK-32180,2024-138V,2026-06-06T12:55:09.594336,15.31723663,.00012582,53.1594,256.7014,90.0221,270.0925,0,U,60374,999,10423,.19290303E-3,.563E-4,0
STARLINK-32281,2024-138W,2026-06-06T12:56:10.989312,15.30211823,.00012219,53.1589,256.7085,73.6292,286.4843,0,U,60375,999,10413,-.16728416E-3,-.5312E-4,0
STARLINK-32277,2024-138X,2026-06-06T13:44:47.435136,15.30216397,.0001333,53.1605,256.9204,103.6083,256.5067,0,U,60376,999,10423,.13692E-3,.37E-4,0
STARLINK-32269,2024-138Y,2026-06-06T13:22:01.693920,15.30195626,.0001051,53.1594,256.8097,68.5999,291.5114,0,U,60377,999,10423,-.18755E-4,-.914E-5,0
QIANFAN-1,2024-140A,2026-06-06T19:34:15.306816,13.51012791,.0019262,88.9728,281.0052,70.5364,289.7866,0,U,60379,999,9112,.16744E-3,.12E-5,0
QIANFAN-2,2024-140B,2026-06-06T18:28:59.289024,13.51008136,.0013774,88.9715,280.8253,47.3303,312.9007,0,U,60380,999,9117,.16027E-3,.116E-5,0
QIANFAN-3,2024-140C,2026-06-06T18:40:50.255616,13.51009235,.0015283,88.9707,280.9437,58.1786,302.0851,0,U,60381,999,9108,.17512E-3,.125E-5,0
QIANFAN-4,2024-140D,2026-06-06T19:51:55.884096,13.51011900,.0014086,88.9732,280.8805,49.4269,310.8106,0,U,60382,999,9121,.17791E-3,.127E-5,0
QIANFAN-5,2024-140E,2026-06-06T19:16:23.541600,13.51010770,.0016857,88.9706,280.9659,67.7124,292.5813,0,U,60383,999,9107,.15912E-3,.115E-5,0
QIANFAN-6,2024-140F,2026-06-06T19:45:59.548896,13.51011323,.0014399,88.9734,280.7576,54.6967,305.5528,0,U,60384,999,9127,.16289E-3,.117E-5,0
QIANFAN-7,2024-140G,2026-06-06T19:08:08.858400,14.27828325,.0015705,88.9769,272.9943,172.2272,187.9169,0,U,60385,999,9551,.23132E-3,.587E-5,0
QIANFAN-8,2024-140H,2026-06-06T19:57:47.340288,13.51007774,.0017894,88.9735,280.9966,55.2563,305.0270,0,U,60386,999,9112,.15618E-3,.113E-5,0
QIANFAN-9,2024-140J,2026-06-06T19:22:19.818048,13.51013211,.0017576,88.9732,281.0710,55.2414,305.0389,0,U,60387,999,9110,.16336E-3,.118E-5,0
QIANFAN-10,2024-140K,2026-06-06T19:28:17.514048,13.51014187,.0015277,88.9744,280.4357,34.6749,325.5395,0,U,60388,999,9123,.1732E-3,.124E-5,0
QIANFAN-11,2024-140L,2026-06-06T18:34:48.414144,13.51008449,.001562,88.9669,280.8946,55.8007,304.4622,0,U,60389,999,9088,.1748E-3,.125E-5,0
QIANFAN-12,2024-140M,2026-06-06T19:04:36.502752,13.51010546,.001468,88.9711,281.0126,63.6929,296.5728,0,U,60390,999,9101,.15298E-3,.111E-5,0
QIANFAN-13,2024-140N,2026-06-06T18:23:04.495200,13.51010568,.0014571,88.9723,281.1369,66.2185,294.0492,0,U,60391,999,9103,.16146E-3,.116E-5,0
